NORAD_CAT_ID,OBJECT_NAME,OBJECT_TYPE,EPOCH,MEAN_MOTION,ECCENTRICITY,INCLINATION,RA_OF_ASC_NODE,ARG_OF_PERICENTER,MEAN_ANOMALY,BSTAR,MEAN_MOTION_DOT,MEAN_MOTION_DDOT,TLE_LINE0,TLE_LINE1,TLE_LINE2,SEMIMAJOR_AXIS,PERIOD,APOGEE,PERIGEE,DECAYED
55922.0,STARLINK-5863,PAYLOAD,2023-09-13 20:38:09,14.98338545,0.0002597,70.0,73.3965,268.1226,91.9636,-6.9344e-05,-9.2e-06,0.0,0 STARLINK-5863,1 55922U 23037J   23256.85983767 -.00000920  00000-0 -69344-4 0  9992,2 55922  70.0000  73.3965 0002597 268.1226  91.9636 14.98338545 27503,6950.166,96.106,573.836,570.227,0.0
55922.0,STARLINK-5863,PAYLOAD,2023-09-14 12:39:31,14.98327442,0.0002902,70.0002,71.7134,270.1427,89.94,-2.9034e-05,-4.39e-06,0.0,0 STARLINK-5863,1 55922U 23037J   23257.52744333 -.00000439  00000-0 -29034-4 0  9998,2 55922  70.0002  71.7134 0002902 270.1427  89.9400 14.98327442 27602,6950.201,96.107,574.083,570.049,0.0
55922.0,STARLINK-5863,PAYLOAD,2023-09-14 17:27:55,14.98325118,0.0002948,70.0002,71.2084,270.3905,89.6916,-1.9422e-05,-3.25e-06,0.0,0 STARLINK-5863,1 55922U 23037J   23257.72772470 -.00000325  00000-0 -19422-4 0  9997,2 55922  70.0002  71.2084 0002948 270.3905  89.6916 14.98325118 27971,6950.208,96.107,574.122,570.024,0.0
55922.0,STARLINK-5863,PAYLOAD,2023-09-14 20:40:11,14.98325452,0.0002935,70.0002,70.8718,270.2613,89.821,-4.9264e-05,-6.81e-06,0.0,0 STARLINK-5863,1 55922U 23037J   23257.86124557 -.00000681  00000-0 -49264-4 0  9991,2 55922  70.0002  70.8718 0002935 270.2613  89.8210 14.98325452 27656,6950.207,96.107,574.112,570.032,0.0
55922.0,STARLINK-5863,PAYLOAD,2023-09-15 12:41:31,14.98329805,0.0003108,69.9999,69.1881,269.5468,90.5335,-2.6438e-05,-4.08e-06,0.0,0 STARLINK-5863,1 55922U 23037J   23258.52884199 -.00000408  00000-0 -26438-4 0  9995,2 55922  69.9999  69.1881 0003108 269.5468  90.5335 14.98329805 27756,6950.193,96.107,574.219,569.898,0.0
55922.0,STARLINK-5863,PAYLOAD,2023-09-15 17:29:56,14.98330753,0.0003014,70.0002,68.6833,268.9317,91.1497,-2.2707e-05,-3.64e-06,0.0,0 STARLINK-5863,1 55922U 23037J   23258.72912130 -.00000364  00000-0 -22707-4 0  9990,2 55922  70.0002  68.6833 0003014 268.9317  91.1497 14.98330753 28129,6950.191,96.107,574.15,569.961,0.0
55922.0,STARLINK-5863,PAYLOAD,2023-09-16 12:43:32,14.98327657,0.0003087,70.0002,66.6631,269.8786,90.2019,4.6141e-05,4.58e-06,0.0,0 STARLINK-5863,1 55922U 23037J   23259.53024107  .00000458  00000-0  46141-4 0  9998,2 55922  70.0002  66.6631 0003087 269.8786  90.2019 14.98327657 27907,6950.2,96.107,574.211,569.92,0.0
55922.0,STARLINK-5863,PAYLOAD,2023-09-16 17:31:57,14.98325986,0.0002882,70.0005,66.1581,263.2689,96.8142,5.6912e-05,5.86e-06,0.0,0 STARLINK-5863,1 55922U 23037J   23259.73052194  .00000586  00000-0  56912-4 0  9996,2 55922  70.0005  66.1581 0002882 263.2689  96.8142 14.98325986 28274,6950.205,96.107,574.073,570.067,0.0
55922.0,STARLINK-5863,PAYLOAD,2023-09-17 12:45:33,14.98329836,0.0003061,70.0007,64.1387,270.0745,90.0064,-2.6175e-06,-1.24e-06,0.0,0 STARLINK-5863,1 55922U 23037J   23260.53164141 -.00000124  00000-0 -26175-5 0  9991,2 55922  70.0007  64.1387 0003061 270.0745  90.0064 14.98329836 28050,6950.193,96.107,574.186,569.931,0.0
55922.0,STARLINK-5863,PAYLOAD,2023-09-17 17:33:57,14.9833151,0.0003085,70.0007,63.6335,269.4825,90.598,1.0423e-05,3.1e-07,0.0,0 STARLINK-5863,1 55922U 23037J   23260.73191976  .00000031  00000-0  10423-4 0  9992,2 55922  70.0007  63.6335 0003085 269.4825  90.5980 14.98331510 28429,6950.188,96.107,574.197,569.909,0.0
55922.0,STARLINK-5863,PAYLOAD,2023-09-18 12:47:34,14.98329966,0.0003066,70.0008,61.6131,269.6636,90.4171,-6.1014e-07,-1e-06,0.0,0 STARLINK-5863,1 55922U 23037J   23261.53303998 -.00000100  00000-0 -61014-6 0  9993,2 55922  70.0008  61.6131 0003066 269.6636  90.4171 14.98329966 28202,6950.193,96.107,574.189,569.927,0.0
55922.0,STARLINK-5863,PAYLOAD,2023-09-18 17:35:58,14.98332824,0.0002898,70.0006,61.1083,266.1585,93.9243,5.2167e-06,-3.1e-07,0.0,0 STARLINK-5863,1 55922U 23037J   23261.73331769 -.00000031  00000-0  52167-5 0  9992,2 55922  70.0006  61.1083 0002898 266.1585  93.9243 14.98332824 28573,6950.184,96.107,574.063,570.035,0.0
55922.0,STARLINK-5863,PAYLOAD,2023-09-18 20:48:14,14.98334234,0.0002971,70.0006,60.7717,266.5742,93.5077,1.6934e-05,1.09e-06,0.0,0 STARLINK-5863,1 55922U 23037J   23261.86683616  .00000109  00000-0  16934-4 0  9993,2 55922  70.0006  60.7717 0002971 266.5742  93.5077 14.98334234 28256,6950.18,96.107,574.11,569.98,0.0
55922.0,STARLINK-5863,PAYLOAD,2023-09-19 17:37:59,14.98332734,0.000299,70.0007,58.5834,269.9752,90.1065,3.6623e-05,3.44e-06,0.0,0 STARLINK-5863,1 55922U 23037J   23262.73471509  .00000344  00000-0  36623-4 0  9994,2 55922  70.0007  58.5834 0002990 269.9752  90.1065 14.98332734 28726,6950.184,96.107,574.128,569.971,0.0
55922.0,STARLINK-5863,PAYLOAD,2023-09-20 12:51:37,14.98319828,0.0002869,70.0014,56.5655,270.0598,90.0232,-7.0722e-05,-9.36e-06,0.0,0 STARLINK-5863,1 55922U 23037J   23263.53584628 -.00000936  00000-0 -70722-4 0  9997,2 55922  70.0014  56.5655 0002869 270.0598  90.0232 14.98319828 28846,6950.224,96.108,574.083,570.095,0.0
55922.0,STARLINK-5863,PAYLOAD,2023-09-20 19:16:08,14.98352847,0.0002768,70.0015,55.8923,268.7813,91.3029,-0.00064107,-7.738e-05,0.0,0 STARLINK-5863,1 55922U 23037J   23263.80287969 -.00007738  00000-0 -64107-3 0  9991,2 55922  70.0015  55.8923 0002768 268.7813  91.3029 14.98352847 28542,6950.122,96.106,573.911,570.063,0.0
55922.0,STARLINK-5863,PAYLOAD,2023-09-21 03:16:49,14.98324333,0.000291,70.0011,55.0495,266.6984,93.3842,-7.7163e-05,-1.013e-05,0.0,0 STARLINK-5863,1 55922U 23037J   23264.13668601 -.00001013  00000-0 -77163-4 0  9991,2 55922  70.0011  55.0495 0002910 266.6984  93.3842 14.98324333 28936,6950.21,96.107,574.098,570.053,0.0
55922.0,STARLINK-5863,PAYLOAD,2023-09-21 11:17:29,14.98329105,0.0002827,70.0014,54.2081,265.9577,94.1259,-2.919e-05,-4.41e-06,0.0,0 STARLINK-5863,1 55922U 23037J   23264.47048277 -.00000441  00000-0 -29190-4 0  9990,2 55922  70.0014  54.2081 0002827 265.9577  94.1259 14.98329105 28649,6950.196,96.107,574.025,570.096,0.0
55922.0,STARLINK-5863,PAYLOAD,2023-09-21 19:18:10,14.98326995,0.0002955,70.0012,53.3658,268.3411,91.741,-1.5981e-05,-2.84e-06,0.0,0 STARLINK-5863,1 55922U 23037J   23264.80428446 -.00000284  00000-0 -15981-4 0  9995,2 55922  70.0012  53.3658 0002955 268.3411  91.7410 14.98326995 28694,6950.202,96.107,574.121,570.013,0.0
55922.0,STARLINK-5863,PAYLOAD,2023-09-22 11:19:30,14.9833191,0.0003122,70.001,51.6826,269.4757,90.6044,0.00016458,1.871e-05,0.0,0 STARLINK-5863,1 55922U 23037J   23265.47187625  .00001871  00000-0  16458-3 0  9990,2 55922  70.0010  51.6826 0003122 269.4757  90.6044 14.98331910 29136,6950.187,96.107,574.222,569.882,0.0
55922.0,STARLINK-5863,PAYLOAD,2023-09-22 12:55:38,14.98332118,0.0003124,70.001,51.5143,269.4752,90.6049,0.00016373,1.861e-05,0.0,0 STARLINK-5863,1 55922U 23037J   23265.53863607  .00001861  00000-0  16373-3 0  9993,2 55922  70.0010  51.5143 0003124 269.4752  90.6049 14.98332118 28803,6950.186,96.107,574.223,569.88,0.0
55922.0,STARLINK-5863,PAYLOAD,2023-09-22 19:20:09,14.98337216,0.000311,70.0011,50.841,269.7687,90.3116,0.00020654,2.373e-05,0.0,0 STARLINK-5863,1 55922U 23037J   23265.80567106  .00002373  00000-0  20654-3 0  9994,2 55922  70.0011  50.8410 0003110 269.7687  90.3116 14.98337216 28848,6950.171,96.107,574.197,569.874,0.0
55922.0,STARLINK-5863,PAYLOAD,2023-09-23 12:57:39,14.98328844,0.0003045,70.0013,48.9889,272.2063,87.8747,5.5363e-05,5.68e-06,0.0,0 STARLINK-5863,1 55922U 23037J   23266.54003896  .00000568  00000-0  55363-4 0  9997,2 55922  70.0013  48.9889 0003045 272.2063  87.8747 14.98328844 29290,6950.196,96.107,574.178,569.945,0.0
55922.0,STARLINK-5863,PAYLOAD,2023-09-24 12:59:40,14.9833134,0.0002945,70.0017,46.464,272.1939,87.8883,-5.1398e-05,-7.06e-06,0.0,0 STARLINK-5863,1 55922U 23037J   23267.54143797 -.00000706  00000-0 -51398-4 0  9993,2 55922  70.0017  46.4640 0002945 272.1939  87.8883 14.98331340 29107,6950.189,96.107,574.101,570.007,0.0
55922.0,STARLINK-5863,PAYLOAD,2023-09-24 17:48:04,14.9833384,0.0003111,70.0017,45.9591,276.4287,83.6517,1.1493e-05,4.4e-07,0.0,0 STARLINK-5863,1 55922U 23037J   23267.74171425  .00000044  00000-0  11493-4 0  9999,2 55922  70.0017  45.9591 0003111 276.4287  83.6517 14.98333840 29470,6950.181,96.107,574.208,569.884,0.0
55922.0,STARLINK-5863,PAYLOAD,2023-09-24 19:24:12,14.98334832,0.0003118,70.0018,45.7908,276.434,83.6464,2.3403e-05,1.86e-06,0.0,0 STARLINK-5863,1 55922U 23037J   23267.80847308  .00000186  00000-0  23403-4 0  9997,2 55922  70.0018  45.7908 0003118 276.4340  83.6464 14.98334832 29145,6950.178,96.107,574.21,569.876,0.0
55922.0,STARLINK-5863,PAYLOAD,2023-09-25 09:49:25,14.98323031,0.0003046,70.0019,44.2765,273.9771,86.104,6.2839e-05,6.57e-06,0.0,0 STARLINK-5863,1 55922U 23037J   23268.40931744  .00000657  00000-0  62839-4 0  9991,2 55922  70.0019  44.2765 0003046 273.9771  86.1040 14.98323031 29575,6950.214,96.107,574.196,569.962,0.0
55922.0,STARLINK-5863,PAYLOAD,2023-09-25 13:01:41,14.98309851,0.0003048,70.0022,43.9412,272.2495,87.8315,0.00033145,3.862e-05,0.0,0 STARLINK-5863,1 55922U 23037J   23268.54283975  .00003862  00000-0  33145-3 0  9990,2 55922  70.0022  43.9412 0003048 272.2495  87.8315 14.98309851 29253,6950.255,96.108,574.239,570.002,0.0
55922.0,STARLINK-5863,PAYLOAD,2023-09-25 19:26:12,14.98332722,0.0002814,70.0024,43.2673,270.8086,89.2751,9.0354e-05,9.85e-06,0.0,0 STARLINK-5863,1 55922U 23037J   23268.80987051  .00000985  00000-0  90354-4 0  9994,2 55922  70.0024  43.2673 0002814 270.8086  89.2751 14.98332722 29632,6950.184,96.107,574.005,570.094,0.0
55922.0,STARLINK-5863,PAYLOAD,2023-09-26 09:51:26,14.98330458,0.0002623,70.0033,41.7549,261.3372,98.749,-0.00016067,-2.009e-05,0.0,0 STARLINK-5863,1 55922U 23037J   23269.41071981 -.00002009  00000-0 -16067-3 0  9997,2 55922  70.0033  41.7549 0002623 261.3372  98.7490 14.98330458 29727,6950.191,96.107,573.88,570.233,0.0
